MMSATS-1                
1 47976U 98067SJ  21157.22115426  .00002562  00000-0  53277-4 0  9995
2 47976  51.6476  36.6627 0003235  61.6905 298.4410 15.49761644 11809
BCCSAT 1                
1 48041U 21022AK  21157.51239542  .00000630  00000-0  46726-4 0  9999
2 48041  97.5594  59.9819 0016006 346.3730  64.4126 15.06503062 10202
